KUIPER-00008            
1 63724U 25088A   25302.79900939  .00005057  00000+0  42718-3 0  9994
2 63724  51.8914 323.7471 0011565  26.5081 333.6479 14.99590751 28420
KUIPER-00009            
1 63725U 25088B   25303.24569308  .00002968  00000+0  41592-3 0  9994
2 63725  51.9022 323.4126 0013068  29.2736 330.8956 14.80145902 28460
KUIPER-00010            
1 63726U 25088C   25303.24013025  .00003358  00000+0  46996-3 0  9992
2 63726  51.9023 299.9289 0012354  76.9982 283.2359 14.79860435 28414
KUIPER-00011            
1 63727U 25088D   25303.26565713  .00002131  00000+0  30840-3 0  9990
2 63727  51.9012 307.3960 0014234  45.7630 314.4498 14.79946990 28441
KUIPER-00012            
1 63728U 25088E   25303.90052105 -.00304663  00000+0 -14960-1 0  9998
2 63728  51.8691 291.4586 0012507  40.6066 319.5843 15.18910439 28677
KUIPER-00013            
1 63729U 25088F   25303.31430641  .00003711  00000+0  51611-3 0  9993
2 63729  51.9025 324.5998 0007910 322.0699  37.9706 14.79888391 28267
KUIPER-00014            
1 63730U 25088G   25303.31279044  .00005256  00000+0  71901-3 0  9993
2 63730  51.9026 325.5756 0008736  27.3345 332.8076 14.79861432 28065
KUIPER-00015            
1 63731U 25088H   25303.54115847  .00003793  00000+0  50693-3 0  9998
2 63731  51.9008 336.1143 0010251   9.6881 350.4278 14.81526490 28398
